[{"OBJECT_NAME":"STARLINK-3329","OBJECT_ID":"2022-001AA","EPOCH":"2026-03-09T13:25:14.783232","MEAN_MOTION":15.08848551,"ECCENTRICITY":0.0001428,"INCLINATION":53.2168,"RA_OF_ASC_NODE":169.7081,"ARG_OF_PERICENTER":84.7026,"MEAN_ANOMALY":275.413,"EPHEMERIS_TYPE":0,"CLASSIFICATION_TYPE":"U","NORAD_CAT_ID":50827,"ELEMENT_SET_NO":999,"REV_AT_EPOCH":23038,"BSTAR":-0.00016489,"MEAN_MOTION_DOT":-2.912e-5,"MEAN_MOTION_DDOT":0},{"OBJECT_NAME":"SL-24 R\/B","OBJECT_ID":"2010-030B","EPOCH":"2026-03-09T20:03:11.519136","MEAN_MOTION":14.28694925,"ECCENTRICITY":0.04193605,"INCLINATION":97.4475,"RA_OF_ASC_NODE":10.8424,"ARG_OF_PERICENTER":179.6805,"MEAN_ANOMALY":180.473,"EPHEMERIS_TYPE":0,"CLASSIFICATION_TYPE":"U","NORAD_CAT_ID":36606,"ELEMENT_SET_NO":999,"REV_AT_EPOCH":81697,"BSTAR":0.0001219417,"MEAN_MOTION_DOT":7.51e-6,"MEAN_MOTION_DDOT":0}]
